{
  "norad_id": 62979,
  "name": "HULIANWANG DIGUI-19",
  "history": [
    {
      "epoch": "2026-03-28T22:02:16.293696",
      "apogee_km": 1150.1171579936172,
      "perigee_km": 1148.5183266063523,
      "latitude_deg": 48.718605302279876,
      "longitude_deg": -153.94856256013736,
      "semi_major_axis_km": 7527.454742299984,
      "eccentricity": 0.0001062,
      "inclination_deg": 50.0042,
      "raan_deg": 163.6473,
      "arg_perigee_deg": 238.6432,
      "mean_anomaly_deg": 121.4336,
      "mean_motion_rev_day": 13.29323041
    },
    {
      "epoch": "2026-03-29T05:15:18.368640",
      "apogee_km": 1150.1215045696445,
      "perigee_km": 1148.513640272975,
      "latitude_deg": 16.03087844917206,
      "longitude_deg": -125.07959040021524,
      "semi_major_axis_km": 7527.454572421309,
      "eccentricity": 0.0001068,
      "inclination_deg": 50.0041,
      "raan_deg": 162.5687,
      "arg_perigee_deg": 239.5678,
      "mean_anomaly_deg": 120.5089,
      "mean_motion_rev_day": 13.29323086
    }
  ]
}